JILIN-1 GAOFEN 3A       
1 44312U 19032C   26173.82066565  .00009975  00000+0  31854-3 0  9999
2 44312  44.9760 325.9303 0006195 322.0492  37.9955 15.32738594388705
WT 1B                   
1 44316U 19032G   26173.82470153  .00007265  00000+0  27720-3 0  9992
2 44316  44.9717  30.1647 0010108 277.5018  82.4716 15.27271330387943
PROX-1                  
1 44339U 19036A   26173.41245167  .00010432  00000+0  10081-2 0  9992
2 44339  23.9949  79.3420 0005878  95.8503 264.2667 14.90717291374259
NPSAT1                  
1 44340U 19036B   26173.32807194  .00003719  00000+0  50923-3 0  9998
2 44340  23.9972 184.2751 0006998 267.5006  92.4688 14.74612293373251
FORMOSAT 7-3            
1 44343U 19036E   26173.60301904  .00003053  00000+0  16315-3 0  9998
2 44343  23.9977 141.2628 0000625  11.1941 348.8576 15.09826855384062
FORMOSAT 7-1            
1 44349U 19036L   26173.51445031  .00002064  00000+0  15125-3 0  9993
2 44349  23.9991 356.4785 0000465 231.5844 128.4615 14.96524300385455
FORMOSAT 7-4            
1 44350U 19036M   26173.73698299  .00001984  00000+0  14437-3 0  9990
2 44350  23.9987  57.0830 0000877 251.7277 108.3129 14.96516236384903
FORMOSAT 7-2            
1 44351U 19036N   26173.49261544  .00001932  00000+0  13995-3 0  9994
2 44351  23.9976 113.0448 0000405 231.2419 128.8045 14.96515505384382
FORMOSAT 7-6            
1 44353U 19036Q   26173.62568411  .00001978  00000+0  14382-3 0  9995
2 44353  23.9982 292.9666 0001187 146.3578 213.6998 14.96530339382638
FORMOSAT 7-5            
1 44358U 19036V   26173.46956747  .00001803  00000+0  12881-3 0  9994
2 44358  23.9973 232.7690 0000219 157.0937 202.9573 14.96533856383149
METEOR-M2 2             
1 44387U 19038A   26173.86436222  .00000106  00000+0  65883-4 0  9999
2 44387  98.9151 161.2336 0001827  40.4109 319.7205 14.24367497362105
GLOBAL-4                
1 44499U 19054E   26173.56831744  .00038051  00000+0  38251-3 0  9994
2 44499  45.0043 205.3383 0005281   9.2626 350.8368 15.64837297381202
ZY-1 02D                
1 44528U 19059A   26173.57521649  .00000082  00000+0  44286-4 0  9992
2 44528  98.6392 235.0208 0004208  18.2482 341.8853 14.35445992355114
TAURUS-1 (JINNIUZUO 1)  
1 44530U 19059C   26173.81626810  .00004141  00000+0  66596-3 0  9995
2 44530  98.6425 338.9933 0007234 295.3206  64.7249 14.72141919359472
ZHUHAI-1 03B            
1 44536U 19060C   26173.84904105  .00026243  00000+0  40106-3 0  9998
2 44536  97.5533 331.9208 0007349 293.5240  66.5240 15.54363187377205
ZHUHAI-1 03D            
1 44538U 19060E   26173.84071808  .00025210  00000+0  44996-3 0  9999
2 44538  97.5394 323.9846 0006599 276.5207  83.5293 15.50030174376952
ZHUHAI-1 03E            
1 44539U 19060F   26173.82742797  .00013889  00000+0  33620-3 0  9991
2 44539  97.5618 323.9709 0005444  13.4619 346.6771 15.41219200376631
GAOFEN-7                
1 44703U 19072A   26173.85572229  .00003095  00000+0  14079-3 0  9996
2 44703  97.2426 235.1089 0018266  22.4629 337.7403 15.21297845368509
JILIN-1 GAOFEN 2A       
1 44777U 19075A   26173.85543326  .00011501  00000+0  29544-3 0  9990
2 44777  97.4962 257.7782 0007212  70.9898 289.2128 15.39441142365751
NINGXIA-1 1             
1 44779U 19076A   26173.81093692 -.00000049  00000+0  52228-4 0  9997
2 44779  45.0038 154.7194 0010982 190.1739 169.8874 14.02038886338641
NINGXIA-1 5             
1 44783U 19076E   26173.82403685 -.00000091  00000+0  25256-4 0  9998
2 44783  45.0038 154.0006 0010465 180.6021 179.4802 14.02086708338560
KL-ALPHA A              
1 44785U 19077A   26173.87569169 -.00000021  00000+0 -47281-4 0  9992
2 44785  88.9245 221.9431 0013377  92.0558 268.2128 13.56043118326505
CARTOSAT-3              
1 44804U 19081A   26173.82146795  .00002761  00000+0  13373-3 0  9995
2 44804  97.4303 235.5984 0013712 130.1474 230.0964 15.19313490364326
JILIN-1 GAOFEN 2B       
1 44836U 19086A   26173.80597039  .00004636  00000+0  21332-3 0  9991
2 44836  97.4879 245.7618 0012533 302.6349  57.3677 15.20760515361349
TIANQIN 1 (CAS-6)       
1 44879U 19093A   26173.84360304  .00002025  00000+0  18809-3 0  9998
2 44879  97.7798 257.6424 0011975  41.1646 319.0476 14.95455196352892
ETRSS-1                 
1 44880U 19093B   26173.84878492  .00002547  00000+0  23262-3 0  9990
2 44880  97.7818 258.1115 0012208  42.0919 318.1238 14.95891717352904
TIANYAN 01              
1 44881U 19093C   26173.83362181  .00001081  00000+0  12792-3 0  9991
2 44881  97.7526 245.9281 0015084  70.3444 289.9398 14.86528590352257
TIANYAN 02              
1 44882U 19093D   26173.83639140  .00003927  00000+0  27866-3 0  9993
2 44882  97.7928 268.6810 0013509  10.3032 349.8468 15.05277292353461
