OBJECT_NAME,OBJECT_ID,EPOCH,MEAN_MOTION,ECCENTRICITY,INCLINATION,RA_OF_ASC_NODE,ARG_OF_PERICENTER,MEAN_ANOMALY,EPHEMERIS_TYPE,CLASSIFICATION_TYPE,NORAD_CAT_ID,ELEMENT_SET_NO,REV_AT_EPOCH,BSTAR,MEAN_MOTION_DOT,MEAN_MOTION_DDOT
JILIN-1 GAOFEN 3A,2019-032C,2026-06-22T19:41:45.512160,15.32738594,.0006195,44.9760,325.9303,322.0492,37.9955,0,U,44312,999,38870,.31854224E-3,.9975E-4,0
WT 1B,2019-032G,2026-06-22T19:47:34.212192,15.27271330,.00101081,44.9717,30.1647,277.5018,82.4716,0,U,44316,999,38794,.27720467E-3,.7265E-4,0
PROX-1,2019-036A,2026-06-22T09:53:55.824288,14.90717291,.00058788,23.9949,79.3420,95.8503,264.2667,0,U,44339,999,37425,.10081417E-2,.10432E-3,0
NPSAT1,2019-036B,2026-06-22T07:52:25.415616,14.74612293,.00069989,23.9972,184.2751,267.5006,92.4688,0,U,44340,999,37325,.50922537E-3,.3719E-4,0
FORMOSAT 7-3,2019-036E,2026-06-22T14:28:20.845056,15.09826855,.00006253,23.9977,141.2628,11.1941,348.8576,0,U,44343,999,38406,.16315113E-3,.3053E-4,0
FORMOSAT 7-1,2019-036L,2026-06-22T12:20:48.506784,14.96524300,.00004655,23.9991,356.4785,231.5844,128.4615,0,U,44349,999,38545,.15125245E-3,.2064E-4,0
FORMOSAT 7-4,2019-036M,2026-06-22T17:41:15.330336,14.96516236,.00008779,23.9987,57.0830,251.7277,108.3129,0,U,44350,999,38490,.14436782E-3,.1984E-4,0
FORMOSAT 7-2,2019-036N,2026-06-22T11:49:21.974016,14.96515505,.00004059,23.9976,113.0448,231.2419,128.8045,0,U,44351,999,38438,.13994556E-3,.1932E-4,0
FORMOSAT 7-6,2019-036Q,2026-06-22T15:00:59.107104,14.96530339,.00011878,23.9982,292.9666,146.3578,213.6998,0,U,44353,999,38263,.1438184E-3,.1978E-4,0
FORMOSAT 7-5,2019-036V,2026-06-22T11:16:10.629408,14.96533856,.00002191,23.9973,232.7690,157.0937,202.9573,0,U,44358,999,38314,.12881151E-3,.1803E-4,0
METEOR-M2 2,2019-038A,2026-06-22T20:44:40.895808,14.24367497,.00018275,98.9151,161.2336,40.4109,319.7205,0,U,44387,999,36210,.65882685E-4,.106E-5,0
GLOBAL-4,2019-054E,2026-06-22T13:38:22.626816,15.64837297,.00052818,45.0043,205.3383,9.2626,350.8368,0,U,44499,999,38120,.38251361E-3,.38051E-3,0
ZY-1 02D,2019-059A,2026-06-22T13:48:18.704736,14.35445992,.00042089,98.6392,235.0208,18.2482,341.8853,0,U,44528,999,35511,.44285917E-4,.82E-6,0
TAURUS-1 (JINNIUZUO 1),2019-059C,2026-06-22T19:35:25.563840,14.72141919,.00072343,98.6425,338.9933,295.3206,64.7249,0,U,44530,999,35947,.66595905E-3,.4141E-4,0
ZHUHAI-1 03B,2019-060C,2026-06-22T20:22:37.146720,15.54363187,.0007349,97.5533,331.9208,293.5240,66.5240,0,U,44536,999,37720,.40106495E-3,.26243E-3,0
ZHUHAI-1 03D,2019-060E,2026-06-22T20:10:38.042112,15.50030174,.0006599,97.5394,323.9846,276.5207,83.5293,0,U,44538,999,37695,.44995821E-3,.2521E-3,0
ZHUHAI-1 03E,2019-060F,2026-06-22T19:51:29.776608,15.41219200,.00054448,97.5618,323.9709,13.4619,346.6771,0,U,44539,999,37663,.3361968E-3,.13889E-3,0
GAOFEN-7,2019-072A,2026-06-22T20:32:14.405856,15.21297845,.00182667,97.2426,235.1089,22.4629,337.7403,0,U,44703,999,36850,.14078623E-3,.3095E-4,0
JILIN-1 GAOFEN 2A,2019-075A,2026-06-22T20:31:49.433664,15.39441142,.00072126,97.4962,257.7782,70.9898,289.2128,0,U,44777,999,36575,.29544218E-3,.11501E-3,0
NINGXIA-1 1,2019-076A,2026-06-22T19:27:44.949888,14.02038886,.0010982,45.0038,154.7194,190.1739,169.8874,0,U,44779,999,33864,.52227513E-4,-.49E-6,0
NINGXIA-1 5,2019-076E,2026-06-22T19:46:36.783840,14.02086708,.00104652,45.0038,154.0006,180.6021,179.4802,0,U,44783,999,33856,.25255842E-4,-.91E-6,0
KL-ALPHA A,2019-077A,2026-06-22T21:00:59.762016,13.56043118,.00133776,88.9245,221.9431,92.0558,268.2128,0,U,44785,999,32650,-.47280673E-4,-.21E-6,0
CARTOSAT-3,2019-081A,2026-06-22T19:42:54.830880,15.19313490,.0013712,97.4303,235.5984,130.1474,230.0964,0,U,44804,999,36432,.13373313E-3,.2761E-4,0
JILIN-1 GAOFEN 2B,2019-086A,2026-06-22T19:20:35.841696,15.20760515,.0012533,97.4879,245.7618,302.6349,57.3677,0,U,44836,999,36134,.21331794E-3,.4636E-4,0
TIANQIN 1 (CAS-6),2019-093A,2026-06-22T20:14:47.302656,14.95455196,.00119753,97.7798,257.6424,41.1646,319.0476,0,U,44879,999,35289,.18809173E-3,.2025E-4,0
ETRSS-1,2019-093B,2026-06-22T20:22:15.017088,14.95891717,.0012208,97.7818,258.1115,42.0919,318.1238,0,U,44880,999,35290,.23262492E-3,.2547E-4,0
TIANYAN 01,2019-093C,2026-06-22T20:00:24.924384,14.86528590,.00150846,97.7526,245.9281,70.3444,289.9398,0,U,44881,999,35225,.12792039E-3,.1081E-4,0
TIANYAN 02,2019-093D,2026-06-22T20:04:24.216960,15.05277292,.00135092,97.7928,268.6810,10.3032,349.8468,0,U,44882,999,35346,.2786622E-3,.3927E-4,0
